ONEWEB-0284             
1 49002U 21060AM  25151.80226851  .00000123  00000+0  28697-3 0  9990
2 49002  87.9035 304.7737 0002189  97.6925 262.4455 13.16596034189417
ONEWEB-0285             
1 49075U 21075A   25151.79823382 -.00000293  00000+0 -84894-3 0  9997
2 49075  87.8888  66.5239 0002003  79.8164 280.3190 13.12444816185185
ONEWEB-0286             
1 49076U 21075B   25151.78012431 -.00000220  00000+0 -64678-3 0  9990
2 49076  87.8910  66.5425 0002015  73.9631 286.1719 13.12440063184535
ONEWEB-0287             
1 49077U 21075C   25151.81521727  .00000057  00000+0  11299-3 0  9995
2 49077  87.9067  81.7928 0002357  71.7117 288.4271 13.17650613183403
ONEWEB-0289             
1 49079U 21075E   25151.84389738  .00000072  00000+0  15270-3 0  9994
2 49079  87.9068  81.8189 0002393  89.0157 271.1249 13.17648560183987
ONEWEB-0290             
1 49080U 21075F   25151.82702147  .00000036  00000+0  59088-4 0  9993
2 49080  87.9067  81.7781 0002338  96.1056 264.0342 13.17649820183391
